BCCSAT-1                
1 48041U 21022AK  21176.56548994  .00000613  00000-0  45596-4 0  9994
2 48041  97.5584  78.6792 0014437 275.9834  83.9748 15.06541999 13072
RAMSAT                  
1 48850U 98067SL  21176.33873102  .00007259  00000-0  13625-3 0  9992
2 48850  51.6429 302.3538 0004321 166.2060 193.9048 15.49743963  1735
SOAR                    
1 48851U 98067SM  21176.53140117  .00018076  00000-0  32418-3 0  9998
2 48851  51.6427 301.3906 0003837 166.8620 193.2470 15.49978622  1803
